{
  "type": "FeatureCollection",
  "features": [
    {
      "type": "Feature",
      "properties": {
        "norad_id": 41330,
        "name": "COSMOS 2514 (751)",
        "group": "gnss",
        "lat": -31.794547564902373,
        "lon": 156.12617244699592,
        "alt_km": 19103.170415092172,
        "timestamp": "2025-12-11T20:41:15.324336+00:00",
        "meta_object_name": "COSMOS 2514 (751)",
        "meta_object_id": "2016-008A",
        "meta_epoch": "2025-12-10T04:09:27.230112",
        "meta_mean_motion": 2.13102584,
        "meta_eccentricity": 0.00121793,
        "meta_inclination": 65.1353,
        "meta_ra_of_asc_node": 319.4918,
        "meta_arg_of_pericenter": 220.0546,
        "meta_mean_anomaly": 139.8533,
        "meta_ephemeris_type": 0,
        "meta_classification_type": "U",
        "meta_norad_cat_id": 41330,
        "meta_element_set_no": 999,
        "meta_rev_at_epoch": 7659,
        "meta_bstar": 0,
        "meta_mean_motion_dot": -5e-07,
        "meta_mean_motion_ddot": 0,
        "tle_line1": "1 41330U 16008A   25344.17323183 -.00000050  00000+0  00000+0 0  9996",
        "tle_line2": "2 41330  65.1353 319.4918 0012179 220.0546 139.8533  2.13102584 76595"
      },
      "geometry": {
        "type": "Point",
        "coordinates": [
          156.12617244699592,
          -31.794547564902373
        ]
      }
    },
    {
      "type": "Feature",
      "properties": {
        "norad_id": 41384,
        "name": "IRNSS-1F",
        "group": "gnss",
        "lat": -2.959628168126903,
        "lon": 63.750274017382885,
        "alt_km": 35861.36080495034,
        "timestamp": "2025-12-11T20:41:15.324348+00:00",
        "meta_object_name": "IRNSS-1F",
        "meta_object_id": "2016-015A",
        "meta_epoch": "2025-12-11T13:39:59.172768",
        "meta_mean_motion": 1.00271903,
        "meta_eccentricity": 0.00225372,
        "meta_inclination": 4.8776,
        "meta_ra_of_asc_node": 101.3294,
        "meta_arg_of_pericenter": 180.5255,
        "meta_mean_anomaly": 36.0296,
        "meta_ephemeris_type": 0,
        "meta_classification_type": "U",
        "meta_norad_cat_id": 41384,
        "meta_element_set_no": 999,
        "meta_rev_at_epoch": 3578,
        "meta_bstar": 0,
        "meta_mean_motion_dot": 1.66e-06,
        "meta_mean_motion_ddot": 0,
        "tle_line1": "1 41384U 16015A   25345.56943487  .00000166  00000+0  00000+0 0  9999",
        "tle_line2": "2 41384   4.8776 101.3294 0022537 180.5255  36.0296  1.00271903 35781"
      },
      "geometry": {
        "type": "Point",
        "coordinates": [
          63.750274017382885,
          -2.959628168126903
        ]
      }
    },
    {
      "type": "Feature",
      "properties": {
        "norad_id": 41434,
        "name": "BEIDOU-2 IGSO-6 (C13)",
        "group": "gnss",
        "lat": 59.38259700186333,
        "lon": 117.47048316495945,
        "alt_km": 35980.39387851761,
        "timestamp": "2025-12-11T20:41:15.324359+00:00",
        "meta_object_name": "BEIDOU-2 IGSO-6 (C13)",
        "meta_object_id": "2016-021A",
        "meta_epoch": "2025-12-03T15:53:57.382080",
        "meta_mean_motion": 1.00293531,
        "meta_eccentricity": 0.00596341,
        "meta_inclination": 59.9536,
        "meta_ra_of_asc_node": 39.991,
        "meta_arg_of_pericenter": 228.541,
        "meta_mean_anomaly": 135.1173,
        "meta_ephemeris_type": 0,
        "meta_classification_type": "U",
        "meta_norad_cat_id": 41434,
        "meta_element_set_no": 999,
        "meta_rev_at_epoch": 3552,
        "meta_bstar": 0,
        "meta_mean_motion_dot": -1.61e-06,
        "meta_mean_motion_ddot": 0,
        "tle_line1": "1 41434U 16021A   25337.66246970 -.00000161  00000+0  00000+0 0  9993",
        "tle_line2": "2 41434  59.9536  39.9910 0059634 228.5410 135.1173  1.00293531 35525"
      },
      "geometry": {
        "type": "Point",
        "coordinates": [
          117.47048316495945,
          59.38259700186333
        ]
      }
    },
    {
      "type": "Feature",
      "properties": {
        "norad_id": 41469,
        "name": "IRNSS-1G",
        "group": "gnss",
        "lat": 4.018216651452594,
        "lon": 160.14940160595725,
        "alt_km": 35789.21897987193,
        "timestamp": "2025-12-11T20:41:15.324372+00:00",
        "meta_object_name": "IRNSS-1G",
        "meta_object_id": "2016-027A",
        "meta_epoch": "2025-12-10T07:18:31.930272",
        "meta_mean_motion": 1.00250551,
        "meta_eccentricity": 0.00046359,
        "meta_inclination": 4.7271,
        "meta_ra_of_asc_node": 102.1628,
        "meta_arg_of_pericenter": 335.3904,
        "meta_mean_anomaly": 240.5348,
        "meta_ephemeris_type": 0,
        "meta_classification_type": "U",
        "meta_norad_cat_id": 41469,
        "meta_element_set_no": 999,
        "meta_rev_at_epoch": 3528,
        "meta_bstar": 0,
        "meta_mean_motion_dot": -3.34e-06,
        "meta_mean_motion_ddot": 0,
        "tle_line1": "1 41469U 16027A   25344.30453623 -.00000334  00000+0  00000+0 0  9993",
        "tle_line2": "2 41469   4.7271 102.1628 0004635 335.3904 240.5348  1.00250551 35285"
      },
      "geometry": {
        "type": "Point",
        "coordinates": [
          160.14940160595725,
          4.018216651452594
        ]
      }
    },
    {
      "type": "Feature",
      "properties": {
        "norad_id": 41549,
        "name": "GSAT0211 (GALILEO 14)",
        "group": "gnss",
        "lat": 48.51666259221898,
        "lon": -5.070992925327695,
        "alt_km": 23217.72293740736,
        "timestamp": "2025-12-11T20:41:15.324383+00:00",
        "meta_object_name": "GSAT0211 (GALILEO 14)",
        "meta_object_id": "2016-030A",
        "meta_epoch": "2025-12-11T02:09:03.353760",
        "meta_mean_motion": 1.70473055,
        "meta_eccentricity": 0.00041282,
        "meta_inclination": 55.1527,
        "meta_ra_of_asc_node": 226.8689,
        "meta_arg_of_pericenter": 18.4657,
        "meta_mean_anomaly": 341.6286,
        "meta_ephemeris_type": 0,
        "meta_classification_type": "U",
        "meta_norad_cat_id": 41549,
        "meta_element_set_no": 999,
        "meta_rev_at_epoch": 5946,
        "meta_bstar": 0,
        "meta_mean_motion_dot": 9e-08,
        "meta_mean_motion_ddot": 0,
        "tle_line1": "1 41549U 16030A   25345.08962215  .00000009  00000+0  00000+0 0  9992",
        "tle_line2": "2 41549  55.1527 226.8689 0004128  18.4657 341.6286  1.70473055 59463"
      },
      "geometry": {
        "type": "Point",
        "coordinates": [
          -5.070992925327695,
          48.51666259221898
        ]
      }
    },
    {
      "type": "Feature",
      "properties": {
        "norad_id": 41550,
        "name": "GSAT0210 (GALILEO 13)",
        "group": "gnss",
        "lat": -34.71817694625484,
        "lon": -161.98339403010448,
        "alt_km": 23225.52630075359,
        "timestamp": "2025-12-11T20:41:15.324394+00:00",
        "meta_object_name": "GSAT0210 (GALILEO 13)",
        "meta_object_id": "2016-030B",
        "meta_epoch": "2025-12-11T08:19:41.751264",
        "meta_mean_motion": 1.70473653,
        "meta_eccentricity": 0.00011945,
        "meta_inclination": 55.152,
        "meta_ra_of_asc_node": 226.8599,
        "meta_arg_of_pericenter": 242.2312,
        "meta_mean_anomaly": 117.8354,
        "meta_ephemeris_type": 0,
        "meta_classification_type": "U",
        "meta_norad_cat_id": 41550,
        "meta_element_set_no": 999,
        "meta_rev_at_epoch": 5946,
        "meta_bstar": 0,
        "meta_mean_motion_dot": 1e-07,
        "meta_mean_motion_ddot": 0,
        "tle_line1": "1 41550U 16030B   25345.34701101  .00000010  00000+0  00000+0 0  9990",
        "tle_line2": "2 41550  55.1520 226.8599 0001194 242.2312 117.8354  1.70473653 59466"
      },
      "geometry": {
        "type": "Point",
        "coordinates": [
          -161.98339403010448,
          -34.71817694625484
        ]
      }
    },
    {
      "type": "Feature",
      "properties": {
        "norad_id": 41586,
        "name": "BEIDOU-2 G7 (C03)",
        "group": "gnss",
        "lat": 1.6920572867829686,
        "lon": 141.60473361683017,
        "alt_km": 35781.906618171546,
        "timestamp": "2025-12-11T20:41:15.324405+00:00",
        "meta_object_name": "BEIDOU-2 G7 (C03)",
        "meta_object_id": "2016-037A",
        "meta_epoch": "2025-12-11T16:01:04.306080",
        "meta_mean_motion": 1.00267643,
        "meta_eccentricity": 0.00044378,
        "meta_inclination": 1.7549,
        "meta_ra_of_asc_node": 67.7499,
        "meta_arg_of_pericenter": 359.661,
        "meta_mean_anomaly": 3.9199,
        "meta_ephemeris_type": 0,
        "meta_classification_type": "U",
        "meta_norad_cat_id": 41586,
        "meta_element_set_no": 999,
        "meta_rev_at_epoch": 501,
        "meta_bstar": 0,
        "meta_mean_motion_dot": -3.45e-06,
        "meta_mean_motion_ddot": 0,
        "tle_line1": "1 41586U 16037A   25345.66741095 -.00000345  00000+0  00000+0 0  9999",
        "tle_line2": "2 41586   1.7549  67.7499 0004437 359.6610   3.9199  1.00267643  5018"
      },
      "geometry": {
        "type": "Point",
        "coordinates": [
          141.60473361683017,
          1.6920572867829686
        ]
      }
    }
  ]
}